GLOBALSTAR M035         
1 25851U 99037A   24198.12148706 -.00000112  00000+0 -18332-2 0  9996
2 25851  51.9958  84.4184 0013207 154.6449 354.2171 11.04531135 59129
GLOBALSTAR M032         
1 25852U 99037B   24198.56421952 -.00000058  00000+0  28864-3 0  9992
2 25852  51.9962 291.7892 0009612 320.8820  39.1284 11.19059638 97214
GLOBALSTAR M051         
1 25853U 99037C   24198.26769502 -.00000100  00000+0 -68621-3 0  9990
2 25853  51.9783 131.2505 0001750 346.0641  14.0121 11.42199533 94002
GLOBALSTAR M030         
1 25854U 99037D   24198.50149690 -.00000044  00000+0  65985-3 0  9994
2 25854  51.9903 318.1408 0004194 159.9080 200.1903 11.55098327111254
GLOBALSTAR M048         
1 25872U 99041A   24198.35104824 -.00000059  00000+0  30259-3 0  9994
2 25872  51.9382  53.0995 0013259 326.9491 203.8844 11.33847336 86887
GLOBALSTAR M026         
1 25873U 99041B   24198.48768483  .00000011  00000+0  27820-2 0  9992
2 25873  51.9966 205.0929 0001225  36.6728 123.7593 11.06834134111310
GLOBALSTAR M043         
1 25874U 99041C   24198.37448688 -.00000013  00000+0  16327-2 0  9996
2 25874  51.9383 147.3029 0012378  95.8008  76.5043 11.25680876 85051
GLOBALSTAR M028         
1 25875U 99041D   24198.22911234 -.00000106  00000+0 -35374-4 0  9992
2 25875  51.9623 114.8150 0063989  61.7129 299.0170 12.50559092148140
